[{"OBJECT_NAME":"STARLINK-2114","OBJECT_ID":"2021-005AW","EPOCH":"2026-03-09T22:00:01.999584","MEAN_MOTION":15.6571157,"ECCENTRICITY":0.00014457,"INCLINATION":53.0461,"RA_OF_ASC_NODE":342.7454,"ARG_OF_PERICENTER":133.5474,"MEAN_ANOMALY":327.8029,"EPHEMERIS_TYPE":0,"CLASSIFICATION_TYPE":"U","NORAD_CAT_ID":47393,"ELEMENT_SET_NO":999,"REV_AT_EPOCH":586,"BSTAR":0.00048635104,"MEAN_MOTION_DOT":0.00049811,"MEAN_MOTION_DDOT":0},{"OBJECT_NAME":"LILIUM-1","OBJECT_ID":"2023-185F","EPOCH":"2026-03-09T22:28:56.680896","MEAN_MOTION":15.66968582,"ECCENTRICITY":0.00057383,"INCLINATION":97.3316,"RA_OF_ASC_NODE":147.7332,"ARG_OF_PERICENTER":186.5847,"MEAN_ANOMALY":173.5339,"EPHEMERIS_TYPE":0,"CLASSIFICATION_TYPE":"U","NORAD_CAT_ID":58467,"ELEMENT_SET_NO":999,"REV_AT_EPOCH":12691,"BSTAR":0.0013028575,"MEAN_MOTION_DOT":0.00140249,"MEAN_MOTION_DDOT":0}]
